{
  "type": "FeatureCollection",
  "features": [
    {
      "type": "Feature",
      "properties": {
        "norad_id": 31192,
        "name": "FENGYUN 1C DEB",
        "group": "fengyun-1c-debris",
        "lat": 27.13265564320978,
        "lon": -20.276560001029274,
        "alt_km": 666.5991045354276,
        "timestamp": "2025-12-26T21:25:53.291251+00:00",
        "meta_object_name": "FENGYUN 1C DEB",
        "meta_object_id": "1999-025BJW",
        "meta_epoch": "2025-12-25T09:49:08.380128",
        "meta_mean_motion": 14.20984359,
        "meta_eccentricity": 0.0259636,
        "meta_inclination": 98.5541,
        "meta_ra_of_asc_node": 342.7085,
        "meta_arg_of_pericenter": 67.1108,
        "meta_mean_anomaly": 295.7254,
        "meta_ephemeris_type": 0,
        "meta_classification_type": "U",
        "meta_norad_cat_id": 31192,
        "meta_element_set_no": 999,
        "meta_rev_at_epoch": 96923,
        "meta_bstar": 0.00037524,
        "meta_mean_motion_dot": 1.098e-05,
        "meta_mean_motion_ddot": 0,
        "tle_line1": "1 31192U 99025BJW 25359.40912477  .00001098  00000+0  37524-3 0  9990",
        "tle_line2": "2 31192  98.5541 342.7085 0259636  67.1108 295.7254 14.20984359969231"
      },
      "geometry": {
        "type": "Point",
        "coordinates": [
          -20.276560001029274,
          27.13265564320978
        ]
      }
    },
    {
      "type": "Feature",
      "properties": {
        "norad_id": 31194,
        "name": "FENGYUN 1C DEB",
        "group": "fengyun-1c-debris",
        "lat": 33.38569718861857,
        "lon": -115.43128123804243,
        "alt_km": 804.4664116455351,
        "timestamp": "2025-12-26T21:25:53.291261+00:00",
        "meta_object_name": "FENGYUN 1C DEB",
        "meta_object_id": "1999-025BJY",
        "meta_epoch": "2025-12-24T15:47:14.452224",
        "meta_mean_motion": 14.36711942,
        "meta_eccentricity": 0.00567634,
        "meta_inclination": 98.9634,
        "meta_ra_of_asc_node": 248.2133,
        "meta_arg_of_pericenter": 243.7654,
        "meta_mean_anomaly": 115.769,
        "meta_ephemeris_type": 0,
        "meta_classification_type": "U",
        "meta_norad_cat_id": 31194,
        "meta_element_set_no": 999,
        "meta_rev_at_epoch": 97298,
        "meta_bstar": 0.0009056253,
        "meta_mean_motion_dot": 2.672e-05,
        "meta_mean_motion_ddot": 0,
        "tle_line1": "1 31194U 99025BJY 25358.65780616  .00002672  00000+0  90563-3 0  9997",
        "tle_line2": "2 31194  98.9634 248.2133 0056763 243.7654 115.7690 14.36711942972982"
      },
      "geometry": {
        "type": "Point",
        "coordinates": [
          -115.43128123804243,
          33.38569718861857
        ]
      }
    },
    {
      "type": "Feature",
      "properties": {
        "norad_id": 31195,
        "name": "FENGYUN 1C DEB",
        "group": "fengyun-1c-debris",
        "lat": 17.024716283362242,
        "lon": -143.460091547654,
        "alt_km": 750.1221759077716,
        "timestamp": "2025-12-26T21:25:53.291272+00:00",
        "meta_object_name": "FENGYUN 1C DEB",
        "meta_object_id": "1999-025BJZ",
        "meta_epoch": "2025-12-22T07:30:58.600800",
        "meta_mean_motion": 14.07984939,
        "meta_eccentricity": 0.01723215,
        "meta_inclination": 98.778,
        "meta_ra_of_asc_node": 29.3728,
        "meta_arg_of_pericenter": 154.2351,
        "meta_mean_anomaly": 206.7529,
        "meta_ephemeris_type": 0,
        "meta_classification_type": "U",
        "meta_norad_cat_id": 31195,
        "meta_element_set_no": 999,
        "meta_rev_at_epoch": 96233,
        "meta_bstar": 0.00023249282,
        "meta_mean_motion_dot": 4.11e-06,
        "meta_mean_motion_ddot": 0,
        "tle_line1": "1 31195U 99025BJZ 25356.31317825  .00000411  00000+0  23249-3 0  9993",
        "tle_line2": "2 31195  98.7780  29.3728 0172321 154.2351 206.7529 14.07984939962336"
      },
      "geometry": {
        "type": "Point",
        "coordinates": [
          -143.460091547654,
          17.024716283362242
        ]
      }
    },
    {
      "type": "Feature",
      "properties": {
        "norad_id": 31196,
        "name": "FENGYUN 1C DEB",
        "group": "fengyun-1c-debris",
        "lat": -78.47359689273121,
        "lon": 61.08180435313639,
        "alt_km": 826.2264658277736,
        "timestamp": "2025-12-26T21:25:53.291282+00:00",
        "meta_object_name": "FENGYUN 1C DEB",
        "meta_object_id": "1999-025BKA",
        "meta_epoch": "2025-12-20T07:28:00.268608",
        "meta_mean_motion": 14.25476414,
        "meta_eccentricity": 0.00582224,
        "meta_inclination": 98.5261,
        "meta_ra_of_asc_node": 7.3249,
        "meta_arg_of_pericenter": 189.9584,
        "meta_mean_anomaly": 170.0447,
        "meta_ephemeris_type": 0,
        "meta_classification_type": "U",
        "meta_norad_cat_id": 31196,
        "meta_element_set_no": 999,
        "meta_rev_at_epoch": 63603,
        "meta_bstar": 0.00037193208,
        "meta_mean_motion_dot": 8.52e-06,
        "meta_mean_motion_ddot": 0,
        "tle_line1": "1 31196U 99025BKA 25354.31111422  .00000852  00000+0  37193-3 0  9999",
        "tle_line2": "2 31196  98.5261   7.3249 0058222 189.9584 170.0447 14.25476414636030"
      },
      "geometry": {
        "type": "Point",
        "coordinates": [
          61.08180435313639,
          -78.47359689273121
        ]
      }
    },
    {
      "type": "Feature",
      "properties": {
        "norad_id": 31198,
        "name": "FENGYUN 1C DEB",
        "group": "fengyun-1c-debris",
        "lat": -80.44897181251122,
        "lon": 167.6563855555887,
        "alt_km": 870.1873399558881,
        "timestamp": "2025-12-26T21:25:53.291292+00:00",
        "meta_object_name": "FENGYUN 1C DEB",
        "meta_object_id": "1999-025BKC",
        "meta_epoch": "2025-12-25T12:39:52.961184",
        "meta_mean_motion": 13.75524314,
        "meta_eccentricity": 0.02033,
        "meta_inclination": 98.6122,
        "meta_ra_of_asc_node": 102.1748,
        "meta_arg_of_pericenter": 317.1251,
        "meta_mean_anomaly": 41.4202,
        "meta_ephemeris_type": 0,
        "meta_classification_type": "U",
        "meta_norad_cat_id": 31198,
        "meta_element_set_no": 999,
        "meta_rev_at_epoch": 62929,
        "meta_bstar": 0.00011761,
        "meta_mean_motion_dot": 9.2e-07,
        "meta_mean_motion_ddot": 0,
        "tle_line1": "1 31198U 99025BKC 25359.52769631  .00000092  00000+0  11761-3 0  9999",
        "tle_line2": "2 31198  98.6122 102.1748 0203300 317.1251  41.4202 13.75524314629299"
      },
      "geometry": {
        "type": "Point",
        "coordinates": [
          167.6563855555887,
          -80.44897181251122
        ]
      }
    },
    {
      "type": "Feature",
      "properties": {
        "norad_id": 31199,
        "name": "FENGYUN 1C DEB",
        "group": "fengyun-1c-debris",
        "lat": 15.75786811792942,
        "lon": -19.253723212279425,
        "alt_km": 902.3146965068909,
        "timestamp": "2025-12-26T21:25:53.291302+00:00",
        "meta_object_name": "FENGYUN 1C DEB",
        "meta_object_id": "1999-025BKD",
        "meta_epoch": "2025-12-26T04:37:05.155392",
        "meta_mean_motion": 14.0999666,
        "meta_eccentricity": 0.00635454,
        "meta_inclination": 98.7161,
        "meta_ra_of_asc_node": 342.5486,
        "meta_arg_of_pericenter": 221.0695,
        "meta_mean_anomaly": 200.665,
        "meta_ephemeris_type": 0,
        "meta_classification_type": "U",
        "meta_norad_cat_id": 31199,
        "meta_element_set_no": 999,
        "meta_rev_at_epoch": 96349,
        "meta_bstar": 0.00021198684,
        "meta_mean_motion_dot": 3.38e-06,
        "meta_mean_motion_ddot": 0,
        "tle_line1": "1 31199U 99025BKD 25360.19242078  .00000338  00000+0  21199-3 0  9995",
        "tle_line2": "2 31199  98.7161 342.5486 0063545 221.0695 200.6650 14.09996660963497"
      },
      "geometry": {
        "type": "Point",
        "coordinates": [
          -19.253723212279425,
          15.75786811792942
        ]
      }
    },
    {
      "type": "Feature",
      "properties": {
        "norad_id": 31201,
        "name": "FENGYUN 1C DEB",
        "group": "fengyun-1c-debris",
        "lat": 70.03626426779385,
        "lon": -163.49122573668035,
        "alt_km": 820.6142752591604,
        "timestamp": "2025-12-26T21:25:53.291312+00:00",
        "meta_object_name": "FENGYUN 1C DEB",
        "meta_object_id": "1999-025BKF",
        "meta_epoch": "2025-12-26T01:44:55.497120",
        "meta_mean_motion": 14.35238849,
        "meta_eccentricity": 0.01419984,
        "meta_inclination": 99.0016,
        "meta_ra_of_asc_node": 221.5265,
        "meta_arg_of_pericenter": 312.2817,
        "meta_mean_anomaly": 203.4602,
        "meta_ephemeris_type": 0,
        "meta_classification_type": "U",
        "meta_norad_cat_id": 31201,
        "meta_element_set_no": 999,
        "meta_rev_at_epoch": 97442,
        "meta_bstar": 0.00094841534,
        "meta_mean_motion_dot": 2.99e-05,
        "meta_mean_motion_ddot": 0,
        "tle_line1": "1 31201U 99025BKF 25360.07286455  .00002990  00000+0  94842-3 0  9994",
        "tle_line2": "2 31201  99.0016 221.5265 0141998 312.2817 203.4602 14.35238849974423"
      },
      "geometry": {
        "type": "Point",
        "coordinates": [
          -163.49122573668035,
          70.03626426779385
        ]
      }
    }
  ]
}